STARLINK-36910          
1 68005U 26039V   26073.84527645  .00440599  00000+0  19958-2 0  9992
2 68005  42.9987  23.1480 0005145 216.7099 143.3421 15.81949852  2458
STARLINK-36889          
1 68006U 26039W   26074.91668981 -.01950710  00000+0 -16848-1 0  9999
2 68006  42.9991  16.6829 0001530 252.6656  56.1536 15.71297667  3874
STARLINK-36592          
1 68007U 26039X   26073.33789404  .00336422  00000+0  15301-2 0  9998
2 68007  42.9994  26.2236 0001650 258.5091 101.5596 15.82138752  2374
STARLINK-36911          
1 68008U 26039Y   26073.33725408 -.00499160  00000+0 -25901-2 0  9991
2 68008  42.9989  26.2186 0002690 279.3856  80.6711 15.81312629  2370
STARLINK-36956          
1 68009U 26039Z   26074.91668981 -.01956975  00000+0 -15699-1 0  9994
2 68009  42.9994  16.6143 0001459 254.8650  81.4442 15.73025074  3877
STARLINK-36953          
1 68010U 26039AA  26074.85022601  .00407883  00000+0  19047-2 0  9990
2 68010  42.9992  16.9126 0004925 233.6069 126.4348 15.81379147  2619
STARLINK-36991          
1 68011U 26039AB  26074.91668981 -.01912505  00000+0 -23735-1 0  9998
2 68011  42.9995  16.9071 0001173 251.5801 326.8112 15.62400410  3878
STARLINK-36936          
1 68012U 26039AC  26074.91668981 -.01962171  00000+0 -15894-1 0  9990
2 68012  42.9996  16.5643 0001480 260.5284  95.4234 15.72809549  3878
STARLINK-36967          
1 68013U 26039AD  26074.91668981 -.01906813  00000+0 -22362-1 0  9990
2 68013  42.9995  16.8707 0001102 245.1204 347.8460 15.63816168  3874
STARLINK-36985          
1 68014U 26039AE  26074.91181295 -.00700894  00000+0 -37138-2 0  9997
2 68014  42.9993  16.5134 0002452 306.4076  53.6569 15.81366721  2620
STARLINK-36335          
1 68015U 26040A   26074.91668981 -.01567533  67965-3 -52637-2 0  9992
2 68015  97.2705  23.6097 0001376 102.7636 177.2711 15.90162798  3378
STARLINK-36923          
1 68016U 26040B   26074.91668981 -.01585766  69471-3 -53125-2 0  9998
2 68016  97.2708  23.6141 0001272  87.6252 201.0861 15.90212072  3421
STARLINK-36568          
1 68017U 26040C   26074.91668981 -.01592357  70034-3 -53240-2 0  9998
2 68017  97.2706  23.6156 0001294  88.9348 203.9114 15.90252314  3425
STARLINK-36930          
1 68018U 26040D   26074.91668981 -.01584736  69373-3 -53142-2 0  9996
2 68018  97.2702  23.6119 0001318  95.7627 188.5987 15.90192450  3424
STARLINK-36921          
1 68019U 26040E   26074.91668981 -.01597310  70505-3 -53150-2 0  9997
2 68019  97.2712  23.6198 0001336 100.0709 200.6400 15.90348445  3427
STARLINK-36928          
1 68020U 26040F   26074.91668981 -.01593221  70149-3 -53097-2 0  9990
2 68020  97.2706  23.6167 0001279  97.2866 199.1981 15.90316791  3420
