[{"OBJECT_NAME":"STARLINK-36910","OBJECT_ID":"2026-039V","EPOCH":"2026-03-14T20:17:11.885280","MEAN_MOTION":15.81949852,"ECCENTRICITY":0.00051452,"INCLINATION":42.9987,"RA_OF_ASC_NODE":23.148,"ARG_OF_PERICENTER":216.7099,"MEAN_ANOMALY":143.3421,"EPHEMERIS_TYPE":0,"CLASSIFICATION_TYPE":"U","NORAD_CAT_ID":68005,"ELEMENT_SET_NO":999,"REV_AT_EPOCH":245,"BSTAR":0.0019957939,"MEAN_MOTION_DOT":0.00440599,"MEAN_MOTION_DDOT":0},{"OBJECT_NAME":"STARLINK-36889","OBJECT_ID":"2026-039W","EPOCH":"2026-03-15T22:00:01.999584","MEAN_MOTION":15.71297667,"ECCENTRICITY":0.00015308,"INCLINATION":42.9991,"RA_OF_ASC_NODE":16.6829,"ARG_OF_PERICENTER":252.6656,"MEAN_ANOMALY":56.1536,"EPHEMERIS_TYPE":0,"CLASSIFICATION_TYPE":"U","NORAD_CAT_ID":68006,"ELEMENT_SET_NO":999,"REV_AT_EPOCH":387,"BSTAR":-0.016847695,"MEAN_MOTION_DOT":-0.0195071,"MEAN_MOTION_DDOT":0},{"OBJECT_NAME":"STARLINK-36592","OBJECT_ID":"2026-039X","EPOCH":"2026-03-14T08:06:34.045056","MEAN_MOTION":15.82138752,"ECCENTRICITY":0.00016501,"INCLINATION":42.9994,"RA_OF_ASC_NODE":26.2236,"ARG_OF_PERICENTER":258.5091,"MEAN_ANOMALY":101.5596,"EPHEMERIS_TYPE":0,"CLASSIFICATION_TYPE":"U","NORAD_CAT_ID":68007,"ELEMENT_SET_NO":999,"REV_AT_EPOCH":237,"BSTAR":0.0015301359,"MEAN_MOTION_DOT":0.00336422,"MEAN_MOTION_DDOT":0},{"OBJECT_NAME":"STARLINK-36911","OBJECT_ID":"2026-039Y","EPOCH":"2026-03-14T08:05:38.752512","MEAN_MOTION":15.81312629,"ECCENTRICITY":0.000269,"INCLINATION":42.9989,"RA_OF_ASC_NODE":26.2186,"ARG_OF_PERICENTER":279.3856,"MEAN_ANOMALY":80.6711,"EPHEMERIS_TYPE":0,"CLASSIFICATION_TYPE":"U","NORAD_CAT_ID":68008,"ELEMENT_SET_NO":999,"REV_AT_EPOCH":237,"BSTAR":-0.0025901433,"MEAN_MOTION_DOT":-0.0049916,"MEAN_MOTION_DDOT":0},{"OBJECT_NAME":"STARLINK-36956","OBJECT_ID":"2026-039Z","EPOCH":"2026-03-15T22:00:01.999584","MEAN_MOTION":15.73025074,"ECCENTRICITY":0.00014596,"INCLINATION":42.9994,"RA_OF_ASC_NODE":16.6143,"ARG_OF_PERICENTER":254.865,"MEAN_ANOMALY":81.4442,"EPHEMERIS_TYPE":0,"CLASSIFICATION_TYPE":"U","NORAD_CAT_ID":68009,"ELEMENT_SET_NO":999,"REV_AT_EPOCH":387,"BSTAR":-0.015699198,"MEAN_MOTION_DOT":-0.01956975,"MEAN_MOTION_DDOT":0},{"OBJECT_NAME":"STARLINK-36953","OBJECT_ID":"2026-039AA","EPOCH":"2026-03-15T20:24:19.527264","MEAN_MOTION":15.81379147,"ECCENTRICITY":0.00049251,"INCLINATION":42.9992,"RA_OF_ASC_NODE":16.9126,"ARG_OF_PERICENTER":233.6069,"MEAN_ANOMALY":126.4348,"EPHEMERIS_TYPE":0,"CLASSIFICATION_TYPE":"U","NORAD_CAT_ID":68010,"ELEMENT_SET_NO":999,"REV_AT_EPOCH":261,"BSTAR":0.0019047024,"MEAN_MOTION_DOT":0.00407883,"MEAN_MOTION_DDOT":0},{"OBJECT_NAME":"STARLINK-36991","OBJECT_ID":"2026-039AB","EPOCH":"2026-03-15T22:00:01.999584","MEAN_MOTION":15.6240041,"ECCENTRICITY":0.00011733,"INCLINATION":42.9995,"RA_OF_ASC_NODE":16.9071,"ARG_OF_PERICENTER":251.5801,"MEAN_ANOMALY":326.8112,"EPHEMERIS_TYPE":0,"CLASSIFICATION_TYPE":"U","NORAD_CAT_ID":68011,"ELEMENT_SET_NO":999,"REV_AT_EPOCH":387,"BSTAR":-0.023734808,"MEAN_MOTION_DOT":-0.01912505,"MEAN_MOTION_DDOT":0},{"OBJECT_NAME":"STARLINK-36936","OBJECT_ID":"2026-039AC","EPOCH":"2026-03-15T22:00:01.999584","MEAN_MOTION":15.72809549,"ECCENTRICITY":0.00014806,"INCLINATION":42.9996,"RA_OF_ASC_NODE":16.5643,"ARG_OF_PERICENTER":260.5284,"MEAN_ANOMALY":95.4234,"EPHEMERIS_TYPE":0,"CLASSIFICATION_TYPE":"U","NORAD_CAT_ID":68012,"ELEMENT_SET_NO":999,"REV_AT_EPOCH":387,"BSTAR":-0.015893787,"MEAN_MOTION_DOT":-0.01962171,"MEAN_MOTION_DDOT":0},{"OBJECT_NAME":"STARLINK-36967","OBJECT_ID":"2026-039AD","EPOCH":"2026-03-15T22:00:01.999584","MEAN_MOTION":15.63816168,"ECCENTRICITY":0.00011029,"INCLINATION":42.9995,"RA_OF_ASC_NODE":16.8707,"ARG_OF_PERICENTER":245.1204,"MEAN_ANOMALY":347.846,"EPHEMERIS_TYPE":0,"CLASSIFICATION_TYPE":"U","NORAD_CAT_ID":68013,"ELEMENT_SET_NO":999,"REV_AT_EPOCH":387,"BSTAR":-0.022362374,"MEAN_MOTION_DOT":-0.01906813,"MEAN_MOTION_DDOT":0},{"OBJECT_NAME":"STARLINK-36985","OBJECT_ID":"2026-039AE","EPOCH":"2026-03-15T21:53:00.638880","MEAN_MOTION":15.81366721,"ECCENTRICITY":0.00024525,"INCLINATION":42.9993,"RA_OF_ASC_NODE":16.5134,"ARG_OF_PERICENTER":306.4076,"MEAN_ANOMALY":53.6569,"EPHEMERIS_TYPE":0,"CLASSIFICATION_TYPE":"U","NORAD_CAT_ID":68014,"ELEMENT_SET_NO":999,"REV_AT_EPOCH":262,"BSTAR":-0.0037138213,"MEAN_MOTION_DOT":-0.00700894,"MEAN_MOTION_DDOT":0},{"OBJECT_NAME":"STARLINK-36335","OBJECT_ID":"2026-040A","EPOCH":"2026-03-15T22:00:01.999584","MEAN_MOTION":15.90162798,"ECCENTRICITY":0.00013769,"INCLINATION":97.2705,"RA_OF_ASC_NODE":23.6097,"ARG_OF_PERICENTER":102.7636,"MEAN_ANOMALY":177.2711,"EPHEMERIS_TYPE":0,"CLASSIFICATION_TYPE":"U","NORAD_CAT_ID":68015,"ELEMENT_SET_NO":999,"REV_AT_EPOCH":337,"BSTAR":-0.0052637021,"MEAN_MOTION_DOT":-0.01567533,"MEAN_MOTION_DDOT":0.00067964602},{"OBJECT_NAME":"STARLINK-36923","OBJECT_ID":"2026-040B","EPOCH":"2026-03-15T22:00:01.999584","MEAN_MOTION":15.90212072,"ECCENTRICITY":0.00012725,"INCLINATION":97.2708,"RA_OF_ASC_NODE":23.6141,"ARG_OF_PERICENTER":87.6252,"MEAN_ANOMALY":201.0861,"EPHEMERIS_TYPE":0,"CLASSIFICATION_TYPE":"U","NORAD_CAT_ID":68016,"ELEMENT_SET_NO":999,"REV_AT_EPOCH":342,"BSTAR":-0.0053124949,"MEAN_MOTION_DOT":-0.01585766,"MEAN_MOTION_DDOT":0.00069470587},{"OBJECT_NAME":"STARLINK-36568","OBJECT_ID":"2026-040C","EPOCH":"2026-03-15T22:00:01.999584","MEAN_MOTION":15.90252314,"ECCENTRICITY":0.00012943,"INCLINATION":97.2706,"RA_OF_ASC_NODE":23.6156,"ARG_OF_PERICENTER":88.9348,"MEAN_ANOMALY":203.9114,"EPHEMERIS_TYPE":0,"CLASSIFICATION_TYPE":"U","NORAD_CAT_ID":68017,"ELEMENT_SET_NO":999,"REV_AT_EPOCH":342,"BSTAR":-0.0053240184,"MEAN_MOTION_DOT":-0.01592357,"MEAN_MOTION_DDOT":0.00070034169},{"OBJECT_NAME":"STARLINK-36930","OBJECT_ID":"2026-040D","EPOCH":"2026-03-15T22:00:01.999584","MEAN_MOTION":15.9019245,"ECCENTRICITY":0.00013186,"INCLINATION":97.2702,"RA_OF_ASC_NODE":23.6119,"ARG_OF_PERICENTER":95.7627,"MEAN_ANOMALY":188.5987,"EPHEMERIS_TYPE":0,"CLASSIFICATION_TYPE":"U","NORAD_CAT_ID":68018,"ELEMENT_SET_NO":999,"REV_AT_EPOCH":342,"BSTAR":-0.0053142229,"MEAN_MOTION_DOT":-0.01584736,"MEAN_MOTION_DDOT":0.0006937343},{"OBJECT_NAME":"STARLINK-36921","OBJECT_ID":"2026-040E","EPOCH":"2026-03-15T22:00:01.999584","MEAN_MOTION":15.90348445,"ECCENTRICITY":0.00013364,"INCLINATION":97.2712,"RA_OF_ASC_NODE":23.6198,"ARG_OF_PERICENTER":100.0709,"MEAN_ANOMALY":200.64,"EPHEMERIS_TYPE":0,"CLASSIFICATION_TYPE":"U","NORAD_CAT_ID":68019,"ELEMENT_SET_NO":999,"REV_AT_EPOCH":342,"BSTAR":-0.0053149515,"MEAN_MOTION_DOT":-0.0159731,"MEAN_MOTION_DDOT":0.0007050465},{"OBJECT_NAME":"STARLINK-36928","OBJECT_ID":"2026-040F","EPOCH":"2026-03-15T22:00:01.999584","MEAN_MOTION":15.90316791,"ECCENTRICITY":0.00012796,"INCLINATION":97.2706,"RA_OF_ASC_NODE":23.6167,"ARG_OF_PERICENTER":97.2866,"MEAN_ANOMALY":199.1981,"EPHEMERIS_TYPE":0,"CLASSIFICATION_TYPE":"U","NORAD_CAT_ID":68020,"ELEMENT_SET_NO":999,"REV_AT_EPOCH":342,"BSTAR":-0.0053096889,"MEAN_MOTION_DOT":-0.01593221,"MEAN_MOTION_DDOT":0.00070148755}]
